[{"OBJECT_NAME":"ONEWEB-0159","OBJECT_ID":"2021-025W","EPOCH":"2026-03-09T16:52:19.801344","MEAN_MOTION":13.13469413,"ECCENTRICITY":0.00018936,"INCLINATION":87.9046,"RA_OF_ASC_NODE":339.9964,"ARG_OF_PERICENTER":73.7977,"MEAN_ANOMALY":286.3361,"EPHEMERIS_TYPE":0,"CLASSIFICATION_TYPE":"U","NORAD_CAT_ID":48062,"ELEMENT_SET_NO":999,"REV_AT_EPOCH":24054,"BSTAR":-0.00067173394,"MEAN_MOTION_DOT":-2.33e-6,"MEAN_MOTION_DDOT":0},{"OBJECT_NAME":"COSMOS 970 DEB","OBJECT_ID":"1977-121CF","EPOCH":"2026-02-27T09:36:07.197120","MEAN_MOTION":13.32021751,"ECCENTRICITY":0.01243262,"INCLINATION":64.8339,"RA_OF_ASC_NODE":114.3496,"ARG_OF_PERICENTER":308.3898,"MEAN_ANOMALY":50.6019,"EPHEMERIS_TYPE":0,"CLASSIFICATION_TYPE":"U","NORAD_CAT_ID":64970,"ELEMENT_SET_NO":999,"REV_AT_EPOCH":59609,"BSTAR":0.00079997193,"MEAN_MOTION_DOT":3.24e-6,"MEAN_MOTION_DDOT":0}]
